LUR-1                   
1 60506U 24149AQ  26068.79566301  .00009121  00000+0  32985-3 0  9998
2 60506  97.3790 148.4255 0002777 309.1571  50.9421 15.28658648 86785
STARLINK-32794          
1 62844U 25019R   26068.07419778  .00036207  00000+0  13182-2 0  9990
2 62844  42.9983  92.7239 0000630 293.8588  66.2197 15.27595370 62154
